CCSDS_OMM_VERS = 2.0
CREATION_DATE  = 
ORIGINATOR     = 

OBJECT_NAME    = NEONSAT-1A
OBJECT_ID      = 2026-019A
CENTER_NAME    = EARTH
REF_FRAME      = TEME
TIME_SYSTEM    = UTC
MEAN_ELEMENT_THEORY = SGP/SGP4

EPOCH          = 2026-03-01T06:49:53.576832
MEAN_MOTION    = 15.07714463
ECCENTRICITY   = .00130681
INCLINATION    = 97.4110
RA_OF_ASC_NODE = 184.1637
ARG_OF_PERICENTER = 197.7182
MEAN_ANOMALY   = 162.3593

EPHEMERIS_TYPE = 0
CLASSIFICATION_TYPE = U
NORAD_CAT_ID   = 67614
ELEMENT_SET_NO = 999
REV_AT_EPOCH   = 455
BSTAR          = .34938568E-3
MEAN_MOTION_DOT = .5283E-4
MEAN_MOTION_DDOT = 0

CCSDS_OMM_VERS = 2.0
CREATION_DATE  = 
ORIGINATOR     = 

OBJECT_NAME    = ELECTRON KICK STAGE R/B
OBJECT_ID      = 2026-019C
CENTER_NAME    = EARTH
REF_FRAME      = TEME
TIME_SYSTEM    = UTC
MEAN_ELEMENT_THEORY = SGP/SGP4

EPOCH          = 2026-03-01T06:46:59.584512
MEAN_MOTION    = 15.78909412
ECCENTRICITY   = .01300326
INCLINATION    = 97.3991
RA_OF_ASC_NODE = 186.7542
ARG_OF_PERICENTER = 151.4231
MEAN_ANOMALY   = 209.4246

EPHEMERIS_TYPE = 0
CLASSIFICATION_TYPE = U
NORAD_CAT_ID   = 67616
ELEMENT_SET_NO = 999
REV_AT_EPOCH   = 472
BSTAR          = .20717347E-2
MEAN_MOTION_DOT = .66257E-2
MEAN_MOTION_DDOT = .15244837E-3

CCSDS_OMM_VERS = 2.0
CREATION_DATE  = 
ORIGINATOR     = 

OBJECT_NAME    = STARLINK-36548
OBJECT_ID      = 2026-020A
CENTER_NAME    = EARTH
REF_FRAME      = TEME
TIME_SYSTEM    = UTC
MEAN_ELEMENT_THEORY = SGP/SGP4

EPOCH          = 2026-03-01T07:38:08.417472
MEAN_MOTION    = 15.76534204
ECCENTRICITY   = .00022932
INCLINATION    = 42.9994
RA_OF_ASC_NODE = 193.1630
ARG_OF_PERICENTER = 252.6439
MEAN_ANOMALY   = 107.4180

EPHEMERIS_TYPE = 0
CLASSIFICATION_TYPE = U
NORAD_CAT_ID   = 67617
ELEMENT_SET_NO = 999
REV_AT_EPOCH   = 476
BSTAR          = .20140211E-2
MEAN_MOTION_DOT = .343671E-2
MEAN_MOTION_DDOT = 0

CCSDS_OMM_VERS = 2.0
CREATION_DATE  = 
ORIGINATOR     = 

OBJECT_NAME    = STARLINK-36601
OBJECT_ID      = 2026-020B
CENTER_NAME    = EARTH
REF_FRAME      = TEME
TIME_SYSTEM    = UTC
MEAN_ELEMENT_THEORY = SGP/SGP4

EPOCH          = 2026-02-28T10:48:59.038848
MEAN_MOTION    = 15.76422228
ECCENTRICITY   = .00030186
INCLINATION    = 43.0002
RA_OF_ASC_NODE = 197.8140
ARG_OF_PERICENTER = 277.3253
MEAN_ANOMALY   = 82.7274

EPHEMERIS_TYPE = 0
CLASSIFICATION_TYPE = U
NORAD_CAT_ID   = 67618
ELEMENT_SET_NO = 999
REV_AT_EPOCH   = 463
BSTAR          = .18187563E-2
MEAN_MOTION_DOT = .307454E-2
MEAN_MOTION_DDOT = 0

CCSDS_OMM_VERS = 2.0
CREATION_DATE  = 
ORIGINATOR     = 

OBJECT_NAME    = STARLINK-36119
OBJECT_ID      = 2026-020C
CENTER_NAME    = EARTH
REF_FRAME      = TEME
TIME_SYSTEM    = UTC
MEAN_ELEMENT_THEORY = SGP/SGP4

EPOCH          = 2026-02-28T16:22:36.641856
MEAN_MOTION    = 15.76396906
ECCENTRICITY   = .00006198
INCLINATION    = 42.9992
RA_OF_ASC_NODE = 196.9946
ARG_OF_PERICENTER = 266.2881
MEAN_ANOMALY   = 93.7918

EPHEMERIS_TYPE = 0
CLASSIFICATION_TYPE = U
NORAD_CAT_ID   = 67619
ELEMENT_SET_NO = 999
REV_AT_EPOCH   = 466
BSTAR          = .1611742E-2
MEAN_MOTION_DOT = .270904E-2
MEAN_MOTION_DDOT = 0

CCSDS_OMM_VERS = 2.0
CREATION_DATE  = 
ORIGINATOR     = 

OBJECT_NAME    = STARLINK-36607
OBJECT_ID      = 2026-020D
CENTER_NAME    = EARTH
REF_FRAME      = TEME
TIME_SYSTEM    = UTC
MEAN_ELEMENT_THEORY = SGP/SGP4

EPOCH          = 2026-02-28T15:38:27.965184
MEAN_MOTION    = 15.76404265
ECCENTRICITY   = .00012138
INCLINATION    = 42.9986
RA_OF_ASC_NODE = 196.7482
ARG_OF_PERICENTER = 273.3927
MEAN_ANOMALY   = 86.6804

EPHEMERIS_TYPE = 0
CLASSIFICATION_TYPE = U
NORAD_CAT_ID   = 67620
ELEMENT_SET_NO = 999
REV_AT_EPOCH   = 466
BSTAR          = .12256936E-2
MEAN_MOTION_DOT = .20433E-2
MEAN_MOTION_DDOT = 0

CCSDS_OMM_VERS = 2.0
CREATION_DATE  = 
ORIGINATOR     = 

OBJECT_NAME    = STARLINK-36615
OBJECT_ID      = 2026-020E
CENTER_NAME    = EARTH
REF_FRAME      = TEME
TIME_SYSTEM    = UTC
MEAN_ELEMENT_THEORY = SGP/SGP4

EPOCH          = 2026-02-28T18:12:34.151040
MEAN_MOTION    = 15.76494142
ECCENTRICITY   = .00019693
INCLINATION    = 42.9999
RA_OF_ASC_NODE = 195.8163
ARG_OF_PERICENTER = 291.6132
MEAN_ANOMALY   = 68.4528

EPHEMERIS_TYPE = 0
CLASSIFICATION_TYPE = U
NORAD_CAT_ID   = 67621
ELEMENT_SET_NO = 999
REV_AT_EPOCH   = 468
BSTAR          = .24210652E-2
MEAN_MOTION_DOT = .416084E-2
MEAN_MOTION_DDOT = 0

CCSDS_OMM_VERS = 2.0
CREATION_DATE  = 
ORIGINATOR     = 

OBJECT_NAME    = STARLINK-36614
OBJECT_ID      = 2026-020F
CENTER_NAME    = EARTH
REF_FRAME      = TEME
TIME_SYSTEM    = UTC
MEAN_ELEMENT_THEORY = SGP/SGP4

EPOCH          = 2026-03-01T06:00:00.999648
MEAN_MOTION    = 15.76338085
ECCENTRICITY   = .00017303
INCLINATION    = 42.9999
RA_OF_ASC_NODE = 193.4829
ARG_OF_PERICENTER = 263.2561
MEAN_ANOMALY   = 106.9716

EPHEMERIS_TYPE = 0
CLASSIFICATION_TYPE = U
NORAD_CAT_ID   = 67622
ELEMENT_SET_NO = 999
REV_AT_EPOCH   = 603
BSTAR          = .35061281E-3
MEAN_MOTION_DOT = .56919E-3
MEAN_MOTION_DDOT = 0

CCSDS_OMM_VERS = 2.0
CREATION_DATE  = 
ORIGINATOR     = 

OBJECT_NAME    = STARLINK-36600
OBJECT_ID      = 2026-020G
CENTER_NAME    = EARTH
REF_FRAME      = TEME
TIME_SYSTEM    = UTC
MEAN_ELEMENT_THEORY = SGP/SGP4

EPOCH          = 2026-02-28T17:50:41.455104
MEAN_MOTION    = 15.76433093
ECCENTRICITY   = .0001936
INCLINATION    = 42.9985
RA_OF_ASC_NODE = 196.5928
ARG_OF_PERICENTER = 293.9717
MEAN_ANOMALY   = 66.0950

EPHEMERIS_TYPE = 0
CLASSIFICATION_TYPE = U
NORAD_CAT_ID   = 67623
ELEMENT_SET_NO = 999
REV_AT_EPOCH   = 467
BSTAR          = .11172249E-2
MEAN_MOTION_DOT = .18604E-2
MEAN_MOTION_DDOT = 0

CCSDS_OMM_VERS = 2.0
CREATION_DATE  = 
ORIGINATOR     = 

OBJECT_NAME    = STARLINK-36439
OBJECT_ID      = 2026-020H
CENTER_NAME    = EARTH
REF_FRAME      = TEME
TIME_SYSTEM    = UTC
MEAN_ELEMENT_THEORY = SGP/SGP4

EPOCH          = 2026-02-28T17:34:55.337088
MEAN_MOTION    = 15.76436905
ECCENTRICITY   = .00032274
INCLINATION    = 43.0020
RA_OF_ASC_NODE = 196.5042
ARG_OF_PERICENTER = 275.5216
MEAN_ANOMALY   = 84.5285

EPHEMERIS_TYPE = 0
CLASSIFICATION_TYPE = U
NORAD_CAT_ID   = 67624
ELEMENT_SET_NO = 999
REV_AT_EPOCH   = 467
BSTAR          = .21818378E-2
MEAN_MOTION_DOT = .372025E-2
MEAN_MOTION_DDOT = 0

CCSDS_OMM_VERS = 2.0
CREATION_DATE  = 
ORIGINATOR     = 

OBJECT_NAME    = STARLINK-36438
OBJECT_ID      = 2026-020J
CENTER_NAME    = EARTH
REF_FRAME      = TEME
TIME_SYSTEM    = UTC
MEAN_ELEMENT_THEORY = SGP/SGP4

EPOCH          = 2026-03-01T00:00:02.000160
MEAN_MOTION    = 15.76394980
ECCENTRICITY   = .00020823
INCLINATION    = 42.9996
RA_OF_ASC_NODE = 194.9718
ARG_OF_PERICENTER = 274.4761
MEAN_ANOMALY   = 127.7829

EPHEMERIS_TYPE = 0
CLASSIFICATION_TYPE = U
NORAD_CAT_ID   = 67625
ELEMENT_SET_NO = 999
REV_AT_EPOCH   = 599
BSTAR          = -.31113936E-3
MEAN_MOTION_DOT = -.50918E-3
MEAN_MOTION_DDOT = 0

CCSDS_OMM_VERS = 2.0
CREATION_DATE  = 
ORIGINATOR     = 

OBJECT_NAME    = STARLINK-36436
OBJECT_ID      = 2026-020K
CENTER_NAME    = EARTH
REF_FRAME      = TEME
TIME_SYSTEM    = UTC
MEAN_ELEMENT_THEORY = SGP/SGP4

EPOCH          = 2026-02-28T18:34:37.859520
MEAN_MOTION    = 15.76450334
ECCENTRICITY   = .00030605
INCLINATION    = 43.0008
RA_OF_ASC_NODE = 195.9418
ARG_OF_PERICENTER = 273.7786
MEAN_ANOMALY   = 86.2733

EPHEMERIS_TYPE = 0
CLASSIFICATION_TYPE = U
NORAD_CAT_ID   = 67626
ELEMENT_SET_NO = 999
REV_AT_EPOCH   = 468
BSTAR          = .15370386E-2
MEAN_MOTION_DOT = .25857E-2
MEAN_MOTION_DDOT = 0

