NEONSAT-1A              
1 67614U 26019A   26060.28464788  .00005283  00000+0  34939-3 0  9991
2 67614  97.4110 184.1637 0013068 197.7182 162.3593 15.07714463  4552
ELECTRON KICK STAGE R/B 
1 67616U 26019C   26060.28263408  .00662570  15245-3  20717-2 0  9996
2 67616  97.3991 186.7542 0130032 151.4231 209.4246 15.78909412  4721
STARLINK-36548          
1 67617U 26020A   26060.31815298  .00343671  00000+0  20140-2 0  9990
2 67617  42.9994 193.1630 0002293 252.6439 107.4180 15.76534204  4761
STARLINK-36601          
1 67618U 26020B   26059.45068332  .00307454  00000+0  18188-2 0  9991
2 67618  43.0002 197.8140 0003018 277.3253  82.7274 15.76422228  4632
STARLINK-36119          
1 67619U 26020C   26059.68236854  .00270904  00000+0  16117-2 0  9992
2 67619  42.9992 196.9946 0000619 266.2881  93.7918 15.76396906  4664
STARLINK-36607          
1 67620U 26020D   26059.65171256  .00204330  00000+0  12257-2 0  9996
2 67620  42.9986 196.7482 0001213 273.3927  86.6804 15.76404265  4666
STARLINK-36615          
1 67621U 26020E   26059.75872860  .00416084  00000+0  24211-2 0  9991
2 67621  42.9999 195.8163 0001969 291.6132  68.4528 15.76494142  4682
STARLINK-36614          
1 67622U 26020F   26060.25001157  .00056919  00000+0  35061-3 0  9995
2 67622  42.9999 193.4829 0001730 263.2561 106.9716 15.76338085  6034
STARLINK-36600          
1 67623U 26020G   26059.74353536  .00186040  00000+0  11172-2 0  9994
2 67623  42.9985 196.5928 0001936 293.9717  66.0950 15.76433093  4674
STARLINK-36439          
1 67624U 26020H   26059.73258492  .00372025  00000+0  21818-2 0  9997
2 67624  43.0020 196.5042 0003227 275.5216  84.5285 15.76436905  4670
STARLINK-36438          
1 67625U 26020J   26060.00002315 -.00050918  00000+0 -31114-3 0  9998
2 67625  42.9996 194.9718 0002082 274.4761 127.7829 15.76394980  5990
STARLINK-36436          
1 67626U 26020K   26059.77404930  .00258570  00000+0  15370-2 0  9997
2 67626  43.0008 195.9418 0003060 273.7786  86.2733 15.76450334  4685
